[{"OBJECT_NAME":"STARLINK-3975","OBJECT_ID":"2022-052Y","EPOCH":"2026-03-09T20:53:41.973216","MEAN_MOTION":15.08853082,"ECCENTRICITY":0.00012146,"INCLINATION":53.2156,"RA_OF_ASC_NODE":283.3126,"ARG_OF_PERICENTER":89.4731,"MEAN_ANOMALY":270.64,"EPHEMERIS_TYPE":0,"CLASSIFICATION_TYPE":"U","NORAD_CAT_ID":52620,"ELEMENT_SET_NO":999,"REV_AT_EPOCH":21080,"BSTAR":0.00011227624,"MEAN_MOTION_DOT":1.5e-5,"MEAN_MOTION_DDOT":0},{"OBJECT_NAME":"FENGYUN 1C DEB","OBJECT_ID":"1999-025CFL","EPOCH":"2026-03-09T13:21:18.531072","MEAN_MOTION":14.04672964,"ECCENTRICITY":0.04686899,"INCLINATION":98.6297,"RA_OF_ASC_NODE":293.4954,"ARG_OF_PERICENTER":18.1684,"MEAN_ANOMALY":343.5617,"EPHEMERIS_TYPE":0,"CLASSIFICATION_TYPE":"U","NORAD_CAT_ID":31761,"ELEMENT_SET_NO":999,"REV_AT_EPOCH":59329,"BSTAR":0.0014536026,"MEAN_MOTION_DOT":6.265e-5,"MEAN_MOTION_DDOT":0}]
